STARLINK-6365           
1 57237U 23094V   26039.70520853  .00000746  00000+0  70272-4 0  9990
2 57237  43.0025 187.5004 0001577 275.9032  84.1631 15.02533661142768
STARLINK-6334           
1 57238U 23094W   26039.69784683 -.00004237  00000+0 -29906-3 0  9990
2 57238  43.0025 175.3046 0001798 269.9308  90.1328 15.02502075142905
STARLINK-6330           
1 57239U 23094X   26039.69743317  .00000735  00000+0  69473-4 0  9991
2 57239  43.0025 187.4413 0001277 268.7766  91.2930 15.02540745142766
STARLINK-6351           
1 57240U 23094Y   26039.82189329 -.00000994  00000+0 -58509-4 0  9992
2 57240  43.0031 174.5117 0001434 278.4882  81.5798 15.02528423142926
STARLINK-6349           
1 57241U 23094Z   26039.70225922 -.00001211  00000+0 -74615-4 0  9999
2 57241  43.0010 175.3361 0001058 241.0938 118.9799 15.02535085142900
STARLINK-6306           
1 57242U 23094AA  26039.36653494  .00000987  00000+0  88145-4 0  9991
2 57242  43.0012 177.1156 0000895 254.7900 105.2844 15.02535043142851
STARLINK-6346           
1 57243U 23094AB  26039.36874912 -.00000293  00000+0 -66239-5 0  9995
2 57243  43.0087 177.1413 0001984 271.9382  88.1233 15.02539714142855
STARLINK-5610           
1 57244U 23094AC  26039.69112972  .00002385  00000+0  19157-3 0  9990
2 57244  43.0146 175.2578 0005379 294.0572  65.9707 15.02551878142902
STARLINK-5587           
1 57245U 23094AD  26039.69448493 -.00000190  00000+0  10422-5 0  9992
2 57245  43.0025 175.2763 0001668 273.2658  86.7993 15.02537805142908
STARLINK-5049           
1 57246U 23094AE  26039.66562993 -.00000231  00000+0 -20279-5 0  9990
2 57246  43.0024 175.0588 0001201 280.5534  79.5173 15.02531480142901
STARLINK-5039           
1 57247U 23094AF  26039.42191389  .00000364  00000+0  42049-4 0  9995
2 57247  43.0034 176.6701 0001505 240.4898 119.5795 15.02539122142863
STARLINK-5514           
1 57248U 23094AG  26039.81744944  .00000338  00000+0  40115-4 0  9993
2 57248  43.0022 174.4748 0001606 248.5915 111.4756 15.02534044142922
STARLINK-5517           
1 57249U 23094AH  26039.68226796  .00001063  00000+0  93731-4 0  9997
2 57249  43.0021 175.1263 0001362 274.7718  85.2969 15.02532344142906
STARLINK-5488           
1 57250U 23094AJ  26039.67229016  .00000271  00000+0  35129-4 0  9993
2 57250  43.0026 175.1110 0001446 264.1311  95.9367 15.02536507142904
STARLINK-5513           
1 57251U 23094AK  26039.67894615 -.00000285  00000+0 -59951-5 0  9994
2 57251  43.0023 175.1615 0001326 267.7688  92.3003 15.02533541142908
STARLINK-5511           
1 57252U 23094AL  26039.66451606  .00000042  00000+0  18157-4 0  9994
2 57252  43.0025 175.0499 0001245 268.8400  91.2300 15.02536851142909
