[{"OBJECT_NAME":"STARLINK-6365","OBJECT_ID":"2023-094V","EPOCH":"2026-02-08T16:55:30.016992","MEAN_MOTION":15.02533661,"ECCENTRICITY":0.00015773,"INCLINATION":43.0025,"RA_OF_ASC_NODE":187.5004,"ARG_OF_PERICENTER":275.9032,"MEAN_ANOMALY":84.1631,"EPHEMERIS_TYPE":0,"CLASSIFICATION_TYPE":"U","NORAD_CAT_ID":57237,"ELEMENT_SET_NO":999,"REV_AT_EPOCH":14276,"BSTAR":7.0271807e-5,"MEAN_MOTION_DOT":7.46e-6,"MEAN_MOTION_DDOT":0},{"OBJECT_NAME":"STARLINK-6334","OBJECT_ID":"2023-094W","EPOCH":"2026-02-08T16:44:53.966112","MEAN_MOTION":15.02502075,"ECCENTRICITY":0.00017988,"INCLINATION":43.0025,"RA_OF_ASC_NODE":175.3046,"ARG_OF_PERICENTER":269.9308,"MEAN_ANOMALY":90.1328,"EPHEMERIS_TYPE":0,"CLASSIFICATION_TYPE":"U","NORAD_CAT_ID":57238,"ELEMENT_SET_NO":999,"REV_AT_EPOCH":14290,"BSTAR":-0.00029905595,"MEAN_MOTION_DOT":-4.237e-5,"MEAN_MOTION_DDOT":0},{"OBJECT_NAME":"STARLINK-6330","OBJECT_ID":"2023-094X","EPOCH":"2026-02-08T16:44:18.225888","MEAN_MOTION":15.02540745,"ECCENTRICITY":0.00012778,"INCLINATION":43.0025,"RA_OF_ASC_NODE":187.4413,"ARG_OF_PERICENTER":268.7766,"MEAN_ANOMALY":91.293,"EPHEMERIS_TYPE":0,"CLASSIFICATION_TYPE":"U","NORAD_CAT_ID":57239,"ELEMENT_SET_NO":999,"REV_AT_EPOCH":14276,"BSTAR":6.9472693e-5,"MEAN_MOTION_DOT":7.35e-6,"MEAN_MOTION_DDOT":0},{"OBJECT_NAME":"STARLINK-6351","OBJECT_ID":"2023-094Y","EPOCH":"2026-02-08T19:43:31.580256","MEAN_MOTION":15.02528423,"ECCENTRICITY":0.00014347,"INCLINATION":43.0031,"RA_OF_ASC_NODE":174.5117,"ARG_OF_PERICENTER":278.4882,"MEAN_ANOMALY":81.5798,"EPHEMERIS_TYPE":0,"CLASSIFICATION_TYPE":"U","NORAD_CAT_ID":57240,"ELEMENT_SET_NO":999,"REV_AT_EPOCH":14292,"BSTAR":-5.8509073e-5,"MEAN_MOTION_DOT":-9.94e-6,"MEAN_MOTION_DDOT":0},{"OBJECT_NAME":"STARLINK-6349","OBJECT_ID":"2023-094Z","EPOCH":"2026-02-08T16:51:15.196608","MEAN_MOTION":15.02535085,"ECCENTRICITY":0.00010584,"INCLINATION":43.001,"RA_OF_ASC_NODE":175.3361,"ARG_OF_PERICENTER":241.0938,"MEAN_ANOMALY":118.9799,"EPHEMERIS_TYPE":0,"CLASSIFICATION_TYPE":"U","NORAD_CAT_ID":57241,"ELEMENT_SET_NO":999,"REV_AT_EPOCH":14290,"BSTAR":-7.4615237e-5,"MEAN_MOTION_DOT":-1.211e-5,"MEAN_MOTION_DDOT":0},{"OBJECT_NAME":"STARLINK-6306","OBJECT_ID":"2023-094AA","EPOCH":"2026-02-08T08:47:48.618816","MEAN_MOTION":15.02535043,"ECCENTRICITY":8.951e-5,"INCLINATION":43.0012,"RA_OF_ASC_NODE":177.1156,"ARG_OF_PERICENTER":254.79,"MEAN_ANOMALY":105.2844,"EPHEMERIS_TYPE":0,"CLASSIFICATION_TYPE":"U","NORAD_CAT_ID":57242,"ELEMENT_SET_NO":999,"REV_AT_EPOCH":14285,"BSTAR":8.8145345e-5,"MEAN_MOTION_DOT":9.87e-6,"MEAN_MOTION_DDOT":0},{"OBJECT_NAME":"STARLINK-6346","OBJECT_ID":"2023-094AB","EPOCH":"2026-02-08T08:50:59.923968","MEAN_MOTION":15.02539714,"ECCENTRICITY":0.0001984,"INCLINATION":43.0087,"RA_OF_ASC_NODE":177.1413,"ARG_OF_PERICENTER":271.9382,"MEAN_ANOMALY":88.1233,"EPHEMERIS_TYPE":0,"CLASSIFICATION_TYPE":"U","NORAD_CAT_ID":57243,"ELEMENT_SET_NO":999,"REV_AT_EPOCH":14285,"BSTAR":-6.623851e-6,"MEAN_MOTION_DOT":-2.93e-6,"MEAN_MOTION_DDOT":0},{"OBJECT_NAME":"STARLINK-5610","OBJECT_ID":"2023-094AC","EPOCH":"2026-02-08T16:35:13.607808","MEAN_MOTION":15.02551878,"ECCENTRICITY":0.00053799,"INCLINATION":43.0146,"RA_OF_ASC_NODE":175.2578,"ARG_OF_PERICENTER":294.0572,"MEAN_ANOMALY":65.9707,"EPHEMERIS_TYPE":0,"CLASSIFICATION_TYPE":"U","NORAD_CAT_ID":57244,"ELEMENT_SET_NO":999,"REV_AT_EPOCH":14290,"BSTAR":0.00019156822,"MEAN_MOTION_DOT":2.385e-5,"MEAN_MOTION_DDOT":0},{"OBJECT_NAME":"STARLINK-5587","OBJECT_ID":"2023-094AD","EPOCH":"2026-02-08T16:40:03.497952","MEAN_MOTION":15.02537805,"ECCENTRICITY":0.00016689,"INCLINATION":43.0025,"RA_OF_ASC_NODE":175.2763,"ARG_OF_PERICENTER":273.2658,"MEAN_ANOMALY":86.7993,"EPHEMERIS_TYPE":0,"CLASSIFICATION_TYPE":"U","NORAD_CAT_ID":57245,"ELEMENT_SET_NO":999,"REV_AT_EPOCH":14290,"BSTAR":1.042218e-6,"MEAN_MOTION_DOT":-1.9e-6,"MEAN_MOTION_DDOT":0},{"OBJECT_NAME":"STARLINK-5049","OBJECT_ID":"2023-094AE","EPOCH":"2026-02-08T15:58:30.425952","MEAN_MOTION":15.0253148,"ECCENTRICITY":0.00012019,"INCLINATION":43.0024,"RA_OF_ASC_NODE":175.0588,"ARG_OF_PERICENTER":280.5534,"MEAN_ANOMALY":79.5173,"EPHEMERIS_TYPE":0,"CLASSIFICATION_TYPE":"U","NORAD_CAT_ID":57246,"ELEMENT_SET_NO":999,"REV_AT_EPOCH":14290,"BSTAR":-2.027914e-6,"MEAN_MOTION_DOT":-2.31e-6,"MEAN_MOTION_DDOT":0},{"OBJECT_NAME":"STARLINK-5039","OBJECT_ID":"2023-094AF","EPOCH":"2026-02-08T10:07:33.360096","MEAN_MOTION":15.02539122,"ECCENTRICITY":0.00015058,"INCLINATION":43.0034,"RA_OF_ASC_NODE":176.6701,"ARG_OF_PERICENTER":240.4898,"MEAN_ANOMALY":119.5795,"EPHEMERIS_TYPE":0,"CLASSIFICATION_TYPE":"U","NORAD_CAT_ID":57247,"ELEMENT_SET_NO":999,"REV_AT_EPOCH":14286,"BSTAR":4.2048796e-5,"MEAN_MOTION_DOT":3.64e-6,"MEAN_MOTION_DDOT":0},{"OBJECT_NAME":"STARLINK-5514","OBJECT_ID":"2023-094AG","EPOCH":"2026-02-08T19:37:07.631616","MEAN_MOTION":15.02534044,"ECCENTRICITY":0.0001606,"INCLINATION":43.0022,"RA_OF_ASC_NODE":174.4748,"ARG_OF_PERICENTER":248.5915,"MEAN_ANOMALY":111.4756,"EPHEMERIS_TYPE":0,"CLASSIFICATION_TYPE":"U","NORAD_CAT_ID":57248,"ELEMENT_SET_NO":999,"REV_AT_EPOCH":14292,"BSTAR":4.0114511e-5,"MEAN_MOTION_DOT":3.38e-6,"MEAN_MOTION_DDOT":0},{"OBJECT_NAME":"STARLINK-5517","OBJECT_ID":"2023-094AH","EPOCH":"2026-02-08T16:22:27.951744","MEAN_MOTION":15.02532344,"ECCENTRICITY":0.00013622,"INCLINATION":43.0021,"RA_OF_ASC_NODE":175.1263,"ARG_OF_PERICENTER":274.7718,"MEAN_ANOMALY":85.2969,"EPHEMERIS_TYPE":0,"CLASSIFICATION_TYPE":"U","NORAD_CAT_ID":57249,"ELEMENT_SET_NO":999,"REV_AT_EPOCH":14290,"BSTAR":9.3731322e-5,"MEAN_MOTION_DOT":1.063e-5,"MEAN_MOTION_DDOT":0},{"OBJECT_NAME":"STARLINK-5488","OBJECT_ID":"2023-094AJ","EPOCH":"2026-02-08T16:08:05.869824","MEAN_MOTION":15.02536507,"ECCENTRICITY":0.00014465,"INCLINATION":43.0026,"RA_OF_ASC_NODE":175.111,"ARG_OF_PERICENTER":264.1311,"MEAN_ANOMALY":95.9367,"EPHEMERIS_TYPE":0,"CLASSIFICATION_TYPE":"U","NORAD_CAT_ID":57250,"ELEMENT_SET_NO":999,"REV_AT_EPOCH":14290,"BSTAR":3.5129129e-5,"MEAN_MOTION_DOT":2.71e-6,"MEAN_MOTION_DDOT":0},{"OBJECT_NAME":"STARLINK-5513","OBJECT_ID":"2023-094AK","EPOCH":"2026-02-08T16:17:40.947360","MEAN_MOTION":15.02533541,"ECCENTRICITY":0.0001326,"INCLINATION":43.0023,"RA_OF_ASC_NODE":175.1615,"ARG_OF_PERICENTER":267.7688,"MEAN_ANOMALY":92.3003,"EPHEMERIS_TYPE":0,"CLASSIFICATION_TYPE":"U","NORAD_CAT_ID":57251,"ELEMENT_SET_NO":999,"REV_AT_EPOCH":14290,"BSTAR":-5.995061e-6,"MEAN_MOTION_DOT":-2.85e-6,"MEAN_MOTION_DDOT":0},{"OBJECT_NAME":"STARLINK-5511","OBJECT_ID":"2023-094AL","EPOCH":"2026-02-08T15:56:54.187584","MEAN_MOTION":15.02536851,"ECCENTRICITY":0.00012452,"INCLINATION":43.0025,"RA_OF_ASC_NODE":175.0499,"ARG_OF_PERICENTER":268.84,"MEAN_ANOMALY":91.23,"EPHEMERIS_TYPE":0,"CLASSIFICATION_TYPE":"U","NORAD_CAT_ID":57252,"ELEMENT_SET_NO":999,"REV_AT_EPOCH":14290,"BSTAR":1.8157025e-5,"MEAN_MOTION_DOT":4.2e-7,"MEAN_MOTION_DDOT":0}]
